G21 ; Set units to mm
G90 ; Absolute positioning
M5  ; Pen Up Safety
G28 ; Auto Home (Optional)
M5
G0 X0.000 Y-2.000
M3
G1 X1.021 Y-0.572 F1500
M5
G0 X1.000 Y-0.500
M3
G1 X1.445 Y0.445 F1500
M5
G0 X1.500 Y0.500
M3
G1 X0.961 Y-1.433 F1500
M5
G0 X1.000 Y-1.500
M3
G1 X-1.997 Y-10.571 F1500
M5
G0 X1.000 Y-1.500
M3
G1 X1.51 Y-0.411 F1500
M5
G0 X1.500 Y-0.500
M3
G1 X2.597 Y-0.077 F1500
M5
G0 X2.500 Y0.000
M3
G1 X3.403 Y-0.045 F1500
M5
G0 X3.500 Y0.000
M3
G1 X4.486 Y-0.483 F1500
M5
G0 X4.500 Y-0.500
M3
G1 X4.975 Y-1.584 F1500
M5
G0 X5.000 Y-1.500
M3
G1 X4.952 Y-2.598 F1500
M5
G0 X5.000 Y-2.500
M3
G1 X4.54 Y-3.558 F1500
M5
G0 X4.500 Y-3.500
M3
G1 X4.076 Y-3.965 F1500
M5
G0 X4.000 Y-4.000
M3
G1 X3.03 Y-4.57 F1500
M5
G0 X1.000 Y-4.000
M3
G1 X2.087 Y-4.515 F1500
M5
G0 X2.000 Y-4.500
M3
G1 X3.461 Y-4.413 F1500
M5
G0 X3.500 Y-4.500
M3
G1 X5.087 Y-3.924 F1500
M5
G0 X5.000 Y-4.000
M3
G1 X6.034 Y-3.509 F1500
M5
G0 X6.000 Y-3.500
M3
G1 X7.438 Y-2.084 F1500
M5
G0 X10.500 Y0.000
M3
G1 X9.412 Y-0.025 F1500
M5
G0 X9.500 Y0.000
M3
G1 X8.508 Y-0.572 F1500
M5
G0 X8.500 Y-0.500
M3
G1 X7.922 Y-0.981 F1500
M5
G0 X8.000 Y-1.000
M3
G1 X7.57 Y-2.012 F1500
M5
G0 X7.500 Y-2.000
M3
G1 X7.408 Y-3.048 F1500
M5
G0 X7.500 Y-3.000
M3
G1 X8.031 Y-4.033 F1500
M5
G0 X8.000 Y-4.000
M3
G1 X9.081 Y-4.467 F1500
M5
G0 X9.000 Y-4.500
M3
G1 X10.043 Y-4.464 F1500
M5
G0 X10.000 Y-4.500
M3
G1 X11.027 Y-4.096 F1500
M5
G0 X11.000 Y-4.000
M3
G1 X11.572 Y-3.516 F1500
M5
G0 X11.500 Y-3.500
M3
G1 X12.021 Y-2.437 F1500
M5
G0 X12.000 Y-2.500
M3
G1 X11.969 Y-1.441 F1500
M5
G0 X12.000 Y-1.500
M3
G1 X11.533 Y-0.596 F1500
M5
G0 X11.500 Y-0.500
M3
G1 X10.452 Y0.092 F1500
M5
G0 X10.500 Y0.000
M3
G1 X10.034 Y-0.566 F1500
M5
G0 X10.000 Y-0.500
M3
G1 X10.078 Y-1.488 F1500
M5
G0 X10.000 Y-1.500
M3
G1 X10.534 Y-2.576 F1500
M5
G0 X10.500 Y-2.500
M3
G1 X11.566 Y-3.054 F1500
M5
G0 X11.500 Y-3.000
M3
G1 X13.006 Y-3.091 F1500
M5
G0 X13.000 Y-3.000
M3
G1 X13.954 Y-2.58 F1500
M5
G0 X14.000 Y-2.500
M3
G1 X14.549 Y-2.051 F1500
M5
G0 X14.500 Y-2.000
M3
G1 X15.572 Y-0.455 F1500
M5
G0 X15.500 Y-0.500
M3
G1 X16.438 Y1.473 F1500
M5
G0 X18.000 Y6.000
M3
G1 X15.085 Y-2.973 F1500
M5
G0 X15.000 Y-3.000
M3
G1 X15.087 Y-3.96 F1500
M5
G0 X15.000 Y-4.000
M3
G1 X15.493 Y-4.502 F1500
M5
G0 X15.500 Y-4.500
M3
G1 X16.428 Y-4.428 F1500
M5
G0 X16.500 Y-4.500
M3
G1 X17.534 Y-4.093 F1500
M5
G0 X17.500 Y-4.000
M3
G1 X17.993 Y-3.409 F1500
M5
G0 X18.000 Y-3.500
M3
G1 X19.084 Y-2.094 F1500
M5
G0 X15.000 Y2.000
M3
G1 X18.536 Y1.965 F1500
M5
G0 X19.000 Y-2.000
M3
G1 X20.08 Y-0.589 F1500
M5
G0 X20.000 Y-0.500
M3
G1 X20.958 Y1.45 F1500
M5
G0 X22.500 Y6.000
M3
G1 X19.565 Y-3.093 F1500
M5
G0 X19.500 Y-3.000
M3
G1 X19.533 Y-4.022 F1500
M5
G0 X19.500 Y-4.000
M3
G1 X20.067 Y-4.527 F1500
M5
G0 X20.000 Y-4.500
M3
G1 X21.081 Y-4.553 F1500
M5
G0 X21.000 Y-4.500
M3
G1 X21.915 Y-3.992 F1500
M5
G0 X22.000 Y-4.000
M3
G1 X22.431 Y-3.584 F1500
M5
G0 X22.500 Y-3.500
M3
G1 X23.536 Y-2.024 F1500
M5
G0 X19.500 Y2.000
M3
G1 X23.087 Y1.959 F1500
M5
G0 X24.000 Y-3.500
M3
G1 X25.043 Y-2.955 F1500
M5
G0 X25.000 Y-3.000
M3
G1 X25.404 Y-2.452 F1500
M5
G0 X25.500 Y-2.500
M3
G1 X25.98 Y-1.428 F1500
M5
G0 X26.000 Y-1.500
M3
G1 X25.92 Y-0.524 F1500
M5
G0 X26.000 Y-0.500
M3
G1 X25.54 Y-0.084 F1500
M5
G0 X25.500 Y0.000
M3
G1 X24.904 Y0.01 F1500
M5
G0 X25.000 Y0.000
M3
G1 X24.001 Y-0.421 F1500
M5
G0 X24.000 Y-0.500
M3
G1 X23.567 Y-1.496 F1500
M5
G0 X23.500 Y-1.500
M3
G1 X23.425 Y-2.931 F1500
M5
G0 X23.500 Y-3.000
M3
G1 X23.937 Y-3.942 F1500
M5
G0 X24.000 Y-4.000
M3
G1 X24.944 Y-4.562 F1500
M5
G0 X25.000 Y-4.500
M3
G1 X26.005 Y-4.454 F1500
M5
G0 X26.000 Y-4.500
M3
G1 X26.932 Y-4.021 F1500
M5
G0 X27.000 Y-4.000
M3
G1 X27.412 Y-3.428 F1500
M5
G0 X27.500 Y-3.500
M3
G1 X28.594 Y-2.014 F1500
M5 ; Pen Up
G0 X0 Y0 ; Go Home
