G21
G90;svg#svg5 > g#layer1 > g#text4917 > path#path103436
M3 S80
G4 P0.2
G0 X15.302213999999994 Y87.80171500000002
M3 S55
G4 P0.2
G1 X15.302213999999998 Y83.14395 F300
G1 X14.034419999999997 Y83.14394999999998 F300
G1 X14.034419999999997 Y87.76037399999997 F300
G1 X13.607228999999997 Y89.40023799999996 F300
G1 X13.091400956844062 Y89.80062075680874 F300
G1 X12.325653999999998 Y89.94456299999997 F300
G1 X11.391395675098558 Y89.77431274315703 F300
G1 X10.706461 Y89.28999499999998 F300
G1 X10.271799524286852 Y88.54535832435599 F300
G1 X10.113905 Y87.50543699999997 F300
G1 X10.113905 Y83.14395 F300
G1 X8.839220299999997 Y83.14394999999998 F300
G1 X8.839220299999997 Y93.86507800000001 F300
G1 X10.113904999999997 Y93.865078 F300
G1 X10.113905 Y89.66206499999998 F300
G1 X11.181883000000001 Y90.70248299999999 F300
G1 X12.608151999999999 Y91.04699199999997 F300
G1 X13.80505266068729 Y90.8281334347109 F300
G1 X14.620086 Y90.22016999999997 F300
G1 X15.112814037589196 Y89.27016635580395 F300
G1 X15.302214000000003 Y87.80171499999996 F300
G1 X15.302213999999994 Y87.80171500000002 F300;svg#svg5 > g#layer1 > g#text4917 > path#path103438
M3 S80
G4 P0.2
G0 X24.434355999999998 Y87.319402
M3 S55
G4 P0.2
G1 X24.434356 Y86.69928499999999 F300
G1 X18.605259000000004 Y86.69928499999996 F300
G1 X18.858070232350613 Y85.50755270281412 F300
G1 X19.390740000000005 Y84.70113099999996 F300
G1 X20.206192517016504 Y84.20085900160136 F300
G1 X21.361334000000003 Y84.01900299999996 F300
G1 X22.773822000000006 Y84.19814799999993 F300
G1 X24.138078000000007 Y84.73558199999994 F300
G1 X24.13807800000001 Y83.53668999999992 F300
G1 X22.739371000000016 Y83.09571799999992 F300
G1 X21.285542000000017 Y82.9441339999999 F300
G1 X19.593419698788203 Y83.22655749053779 F300
G1 X18.357213000000023 Y84.01900299999991 F300
G1 X17.564459724574345 Y85.24766320570153 F300
G1 X17.28234400000002 Y86.92666099999991 F300
G1 X17.55284291105801 Y88.67008044051374 F300
G1 X18.30209100000002 Y89.9307819999999 F300
G1 X19.48148259965424 Y90.75786126457106 F300
G1 X21.065056000000016 Y91.04699199999989 F300
G1 X22.48164083092045 Y90.78596340236739 F300
G1 X23.52485200000002 Y90.0410249999999 F300
G1 X24.192240204348526 Y88.90431183704882 F300
G1 X24.434356000000022 Y87.31940199999988 F300
G1 X24.434355999999998 Y87.319402 F300
M3 S80
G4 P0.2
G0 X23.166562000000006 Y87.69147199999999
M3 S55
G4 P0.2
G1 X23.005116984826046 Y88.64951301679748 F300
G1 X22.580896000000006 Y89.35200699999999 F300
G1 X21.933850681632354 Y89.81252487052586 F300
G1 X21.078836000000003 Y89.97212299999997 F300
G1 X20.101719123236652 Y89.81471268500508 F300
G1 X19.376960000000004 Y89.37267699999997 F300
G1 X18.8883019530885 Y88.67570239952937 F300
G1 X18.646600000000007 Y87.68458199999993 F300
G1 X23.166562000000006 Y87.69147199999999 F300;svg#svg5 > g#layer1 > g#text4917 > path#path103440
M3 S80
G4 P0.2
G0 X26.517837999999994 Y93.86507800000001
M3 S55
G4 P0.2
G1 X27.785631999999996 Y93.865078 F300
G1 X27.785632 Y83.14395 F300
G1 X26.51783800000001 Y83.14394999999998 F300
G1 X26.517837999999994 Y93.86507800000001 F300;svg#svg5 > g#layer1 > g#text4917 > path#path103442
M3 S80
G4 P0.2
G0 X30.440999999999992 Y93.86507800000001
M3 S55
G4 P0.2
G1 X31.708795 Y93.865078 F300
G1 X31.708795 Y83.14395 F300
G1 X30.440999999999992 Y83.14394999999998 F300
G1 X30.440999999999992 Y93.86507800000001 F300;svg#svg5 > g#layer1 > g#text4917 > path#path103444
M3 S80
G4 P0.2
G0 X37.35450199999999 Y89.972123
M3 S55
G4 P0.2
G1 X36.43887463137493 Y89.77097771836291 F300
G1 X35.74219799999999 Y89.172862 F300
G1 X35.311171818704274 Y88.28020123097892 F300
G1 X35.14964199999999 Y86.99556299999999 F300
G1 X35.30922349324997 Y85.70929457166217 F300
G1 X35.735308 Y84.81137399999997 F300
G1 X36.43235598728696 Y84.21907337651542 F300
G1 X37.354502000000004 Y84.01900299999996 F300
G1 X38.26421525224521 Y84.21978156771446 F300
G1 X38.959915 Y84.81826499999995 F300
G1 X39.39139375594448 Y85.71593902709284 F300
G1 X39.552471000000004 Y86.99556299999993 F300
G1 X39.39160620505416 Y88.26913744689101 F300
G1 X38.95991500000001 Y89.16597199999993 F300
G1 X38.263614893979884 Y89.76991612233176 F300
G1 X37.35450200000002 Y89.97212299999991 F300
G1 X37.35450199999999 Y89.972123 F300
M3 S80
G4 P0.2
G0 X37.35450199999999 Y91.04699199999999
M3 S55
G4 P0.2
G1 X38.855686222380555 Y90.76781850653076 F300
G1 X39.95210199999999 Y89.97212299999997 F300
G1 X40.64204766782128 Y88.74603743968163 F300
G1 X40.896056999999985 Y86.99556299999999 F300
G1 X40.64253713716934 Y85.25000258464787 F300
G1 X39.95210199999999 Y84.01900299999998 F300
G1 X38.85568622238054 Y83.22330749346919 F300
G1 X37.35450199999999 Y82.94413399999999 F300
G1 X35.84736170616202 Y83.22361295722212 F300
G1 X34.75001099999999 Y84.01900299999998 F300
G1 X34.06481539563069 Y85.24939593072398 F300
G1 X33.812946 Y86.99556299999999 F300
G1 X34.065303228460685 Y88.7466490982701 F300
G1 X34.75001100000001 Y89.97212299999997 F300
G1 X35.84736170616203 Y90.76751304277781 F300
G1 X37.35450200000001 Y91.04699199999997 F300
G1 X37.35450199999999 Y91.04699199999999 F300;svg#svg5 > g#layer1 > g#text4917 > path#path103446
M3 S80
G4 P0.2
G0 X15.302213999999994 Y67.340619
M3 S55
G4 P0.2
G1 X15.302213999999998 Y62.682854 F300
G1 X14.034419999999997 Y62.682853999999985 F300
G1 X14.034419999999997 Y67.29927799999997 F300
G1 X13.607228999999997 Y68.93914199999996 F300
G1 X13.091400956844062 Y69.33952475680874 F300
G1 X12.325653999999998 Y69.48346699999998 F300
G1 X11.391395675098561 Y69.31321674315703 F300
G1 X10.706461 Y68.82889899999996 F300
G1 X10.27179959653479 Y68.0842630327667 F300
G1 X10.113905 Y67.04434099999995 F300
G1 X10.113905 Y62.682853999999956 F300
G1 X8.839220299999997 Y62.682853999999956 F300
G1 X8.839220299999997 Y73.40398200000001 F300
G1 X10.113904999999997 Y73.40398200000001 F300
G1 X10.113905 Y69.200969 F300
G1 X11.181883000000001 Y70.241387 F300
G1 X12.608151999999999 Y70.58589599999999 F300
G1 X13.80505266068729 Y70.36703743471092 F300
G1 X14.620086 Y69.759074 F300
G1 X15.112814037589196 Y68.80907035580401 F300
G1 X15.302214000000003 Y67.34061899999999 F300
G1 X15.302213999999994 Y67.340619 F300;svg#svg5 > g#layer1 > g#text4917 > path#path103448
M3 S80
G4 P0.2
G0 X20.823899 Y69.511028
M3 S55
G4 P0.2
G1 X19.908272577108953 Y69.30988256331197 F300
G1 X19.211596 Y68.711766 F300
G1 X18.78056981870429 Y67.81910523097892 F300
G1 X18.61904 Y66.53446699999999 F300
G1 X18.778621245138748 Y65.24819848564174 F300
G1 X19.204705 Y64.35027799999997 F300
G1 X19.90175298728696 Y63.75797737651543 F300
G1 X20.823899000000004 Y63.55790699999996 F300
G1 X21.733612252245223 Y63.75868556771448 F300
G1 X22.429312000000003 Y64.35716899999996 F300
G1 X22.860790755944468 Y65.25484302709282 F300
G1 X23.021868000000005 Y66.53446699999995 F300
G1 X22.86100320505416 Y67.80804144689102 F300
G1 X22.429312000000007 Y68.70487599999994 F300
G1 X21.733011806849376 Y69.30882091534562 F300
G1 X20.823899000000015 Y69.51102799999994 F300
G1 X20.823899 Y69.511028 F300
M3 S80
G4 P0.2
G0 X20.823899000000004 Y70.58589599999998
M3 S55
G4 P0.2
G1 X22.32508399804104 Y70.3067226493002 F300
G1 X23.421499 Y69.51102799999997 F300
G1 X24.111445464312016 Y68.28494151152148 F300
G1 X24.365455 Y66.53446699999996 F300
G1 X24.11193489783514 Y64.78890667271169 F300
G1 X23.421499000000004 Y63.55790699999996 F300
G1 X22.32508390951965 Y62.76221157289474 F300
G1 X20.82389900000001 Y62.48303799999995 F300
G1 X19.316758883227124 Y62.76251699232443 F300
G1 X18.219409000000013 Y63.55790699999994 F300
G1 X17.5342133956307 Y64.78829993072392 F300
G1 X17.282344000000013 Y66.53446699999994 F300
G1 X17.534701192416858 Y68.28555325842513 F300
G1 X18.219409000000013 Y69.51102799999992 F300
G1 X19.316758794490124 Y70.306417230135 F300
G1 X20.82389900000002 Y70.5858959999999 F300
G1 X20.823899000000004 Y70.58589599999998 F300;svg#svg5 > g#layer1 > g#text4917 > path#path103450
M3 S80
G4 P0.2
G0 X25.732356999999997 Y70.399861
M3 S55
G4 P0.2
G1 X27.000151 Y70.399861 F300
G1 X28.584894 Y64.37783900000001 F300
G1 X30.162746000000006 Y70.39986099999999 F300
G1 X31.657917 Y70.39986099999999 F300
G1 X33.24265900000001 Y64.37783899999998 F300
G1 X34.820512 Y70.39986099999999 F300
G1 X36.08830600000002 Y70.39986099999999 F300
G1 X34.06948200000002 Y62.68285399999997 F300
G1 X32.57431100000003 Y62.682853999999956 F300
G1 X30.913777000000024 Y69.00804399999996 F300
G1 X29.24635200000003 Y62.682853999999956 F300
G1 X27.751181000000038 Y62.68285399999994 F300
G1 X25.732356999999997 Y70.399861 F300;svg#svg5 > g#layer1 > g#text4917 > path#path103452
M3 S80
G4 P0.2
G0 X42.370558999999986 Y65.728316
M3 S55
G4 P0.2
G1 X42.370559 Y70.39986099999999 F300
G1 X43.63835400000001 Y70.39986099999999 F300
G1 X43.63835400000001 Y65.77654699999998 F300
G1 X44.065545000000014 Y64.12979299999996 F300
G1 X44.581373043155956 Y63.729410243191204 F300
G1 X45.347120000000004 Y63.58546799999996 F300
G1 X46.28137832490145 Y63.755718256842904 F300
G1 X46.96631300000001 Y64.24003599999996 F300
G1 X47.40623865297074 Y64.98527306883443 F300
G1 X47.565759000000014 Y66.02459399999995 F300
G1 X47.565759000000014 Y70.39986099999996 F300
G1 X48.83355400000002 Y70.39986099999996 F300
G1 X48.83355400000003 Y62.682853999999956 F300
G1 X47.565759000000035 Y62.68285399999994 F300
G1 X47.565759000000035 Y63.86796499999993 F300
G1 X46.49089000000003 Y62.820656999999905 F300
G1 X45.07840200000003 Y62.48303799999991 F300
G1 X43.880265249389645 Y62.70164690973572 F300
G1 X43.059578000000045 Y63.30985999999989 F300
G1 X42.56119958084863 Y64.26550440983725 F300
G1 X42.37055900000005 Y65.72831599999988 F300
G1 X42.370558999999986 Y65.728316 F300
M3 S80
G4 P0.2
G0 X45.560714999999995 Y70.58589599999999;svg#svg5 > g#layer1 > g#text4917 > path#path103454
G0 X57.29999099999999 Y64.43296099999999
M3 S55
G4 P0.2
G1 X58.69869899999998 Y64.43296099999999 F300
G1 X58.69869899999998 Y62.682854 F300
G1 X57.29999099999999 Y62.682853999999985 F300
G1 X57.29999099999999 Y64.43296099999999 F300
M3 S80
G4 P0.2
G0 X58.657357999999995 Y65.445818
M3 S55
G4 P0.2
G1 X57.341331999999994 Y65.445818 F300
G1 X57.34133200000001 Y66.50690699999998 F300
G1 X57.53425700000002 Y67.65067699999999 F300
G1 X58.34729900000003 Y68.69109499999999 F300
G1 X58.96741600000003 Y69.30432199999998 F300
G1 X59.53241100000004 Y69.99334099999999 F300
G1 X59.71155600000005 Y70.65479799999999 F300
G1 X59.25680400000006 Y71.64698499999999 F300
G1 X58.064802000000064 Y72.02594499999998 F300
G1 X56.90036000000006 Y71.78478899999999 F300
G1 X55.61878600000007 Y71.08198999999999 F300
G1 X55.618786000000085 Y72.37734499999998 F300
G1 X56.92792100000008 Y72.963011 F300
G1 X58.305958000000096 Y73.155936 F300
G1 X59.47733806209517 Y72.97902943235675 F300
G1 X60.33856300000009 Y72.48758799999997 F300
G1 X60.913707251504256 Y71.72069449811879 F300
G1 X61.1102640000001 Y70.72369999999998 F300
G1 X60.8622170000001 Y69.72462299999995 F300
G1 X59.994054000000105 Y68.66353499999997 F300
G1 X59.38771700000011 Y68.07097899999995 F300
G1 X58.92607500000011 Y67.56110499999994 F300
G1 X58.74004000000013 Y67.20970599999993 F300
G1 X58.67803000000013 Y66.85830599999993 F300
G1 X58.65736000000013 Y66.2933109999999 F300
G1 X58.657357999999995 Y65.445818 F300
M3 S80
G4 P0.2
