G21
G90
M3 S55;svg#svg5 > g#layer1 > path#path8908
G0 X75.51 Y53.212
M3 S80
G1 X75.51 Y54.162 F300
G1 X76.246 Y56.002 F300
G1 X77.006 Y56.952 F300
G1 X78.502 Y57.902 F300
G1 X81.494 Y57.902 F300
G1 X82.99 Y56.952 F300
G1 X83.75 Y56.002 F300
G1 X84.486 Y54.162 F300
G1 X84.486 Y52.262 F300
G1 X83.75 Y50.422 F300
G1 X82.99 Y49.472 F300
G1 X79.998 Y47.602 F300
G1 X79.998 Y44.782 F300
M3 S55
G0 X79.998 Y40.122
M3 S80
G1 X79.238 Y39.187 F300
G1 X79.998 Y38.252 F300
G1 X80.758 Y39.187 F300
G1 X79.998 Y40.122 F300
M3 S55
G0 X62.046 Y51.342
M3 S80
G1 X62.046 Y41.992 F300
G1 X62.806 Y39.187 F300
G1 X64.302 Y38.252 F300
G1 X66.558 Y38.252 F300
G1 X68.03 Y39.187 F300
G1 X70.286 Y41.992 F300
M3 S55
G0 X70.286 Y51.342
M3 S80
G1 X70.286 Y38.252 F300
M3 S55
G0 X35.879 Y51.342
M3 S80
G1 X38.87 Y38.252 F300
M3 S55
G0 X41.862 Y51.342
M3 S80
G1 X38.87 Y38.252 F300
M3 S55
G0 X41.862 Y51.342
M3 S80
G1 X44.854 Y38.252 F300
M3 S55
G0 X47.846 Y51.342
M3 S80
G1 X44.854 Y38.252 F300
M3 S55
G0 X25.407 Y51.342
M3 S80
G1 X23.935 Y50.422 F300
G1 X22.415 Y48.522 F300
G1 X21.679 Y45.732 F300
G1 X21.679 Y43.862 F300
G1 X22.415 Y41.057 F300
G1 X23.935 Y39.187 F300
G1 X25.407 Y38.252 F300
G1 X27.663 Y38.252 F300
G1 X29.159 Y39.187 F300
G1 X30.655 Y41.057 F300
G1 X31.391 Y43.862 F300
G1 X31.391 Y45.732 F300
G1 X30.655 Y48.522 F300
G1 X29.159 Y50.422 F300
G1 X27.663 Y51.342 F300
G1 X25.407 Y51.342 F300
M3 S55
G0 X5.959 Y57.902
M3 S80
G1 X5.959 Y38.252 F300
M3 S55
G0 X16.455 Y57.902
M3 S80
G1 X16.455 Y38.252 F300
M3 S55
G0 X5.959 Y48.522
M3 S80
G1 X16.455 Y48.522 F300
M3 S55
G0 X47.11 Y95.005
M3 S80
G1 X47.11 Y81.885 F300
M3 S55
G0 X47.11 Y77.225
M3 S80
G1 X46.374 Y76.29 F300
G1 X47.11 Y75.355 F300
G1 X47.846 Y76.29 F300
G1 X47.11 Y77.225 F300
M3 S55
G0 X39.63 Y95.005
M3 S80
G1 X39.63 Y81.885 F300
M3 S55
G0 X39.63 Y77.225
M3 S80
G1 X38.894 Y76.29 F300
G1 X39.63 Y75.355 F300
G1 X40.366 Y76.29 F300
G1 X39.63 Y77.225 F300
M3 S55
G0 X21.679 Y95.005
M3 S80
G1 X22.415 Y94.055 F300
G1 X23.175 Y95.005 F300
G1 X22.415 Y95.925 F300
G1 X21.679 Y95.005 F300
M3 S55
G0 X22.415 Y88.445
M3 S80
G1 X22.415 Y75.355 F300
M3 S55
G0 X5.959 Y95.005
M3 S80
G1 X5.959 Y75.355 F300
M3 S55
G0 X16.455 Y95.005
M3 S80
G1 X16.455 Y75.355 F300
M3 S55
G0 X5.959 Y85.625
M3 S80
G1 X16.455 Y85.625 F300
M3 S55
