G21
G90
M3 S80;svg#svg5 > g#layer1 > path#path8908
G0 X62.803 Y63.356
M3 S55
G1 X62.803 Y63.751 F300
G1 X63.187 Y64.519 F300
G1 X63.583 Y64.914 F300
G1 X64.362 Y65.31 F300
G1 X65.921 Y65.31 F300
G1 X66.7 Y64.914 F300
G1 X67.096 Y64.519 F300
G1 X67.48 Y63.751 F300
G1 X67.48 Y62.96 F300
G1 X67.096 Y62.193 F300
G1 X66.7 Y61.797 F300
G1 X65.141 Y61.017 F300
G1 X65.141 Y59.842 F300
M3 S80
G0 X65.141 Y57.899
M3 S55
G1 X64.746 Y57.51 F300
G1 X65.141 Y57.12 F300
G1 X65.537 Y57.51 F300
G1 X65.141 Y57.899 F300
M3 S80
G0 X55.788 Y62.576
M3 S55
G1 X55.788 Y58.679 F300
G1 X56.184 Y57.51 F300
G1 X56.963 Y57.12 F300
G1 X58.139 Y57.12 F300
G1 X58.906 Y57.51 F300
G1 X60.081 Y58.679 F300
M3 S80
G0 X60.081 Y62.576
M3 S55
G1 X60.081 Y57.12 F300
M3 S80
G0 X42.154 Y62.576
M3 S55
G1 X43.713 Y57.12 F300
M3 S80
G0 X45.272 Y62.576
M3 S55
G1 X43.713 Y57.12 F300
M3 S80
G0 X45.272 Y62.576
M3 S55
G1 X46.831 Y57.12 F300
M3 S80
G0 X48.389 Y62.576
M3 S55
G1 X46.831 Y57.12 F300
M3 S80
G0 X36.698 Y62.576
M3 S55
G1 X35.931 Y62.193 F300
G1 X35.139 Y61.401 F300
G1 X34.755 Y60.238 F300
G1 X34.755 Y59.458 F300
G1 X35.139 Y58.289 F300
G1 X35.931 Y57.51 F300
G1 X36.698 Y57.12 F300
G1 X37.873 Y57.12 F300
G1 X38.653 Y57.51 F300
G1 X39.432 Y58.289 F300
G1 X39.816 Y59.458 F300
G1 X39.816 Y60.238 F300
G1 X39.432 Y61.401 F300
G1 X38.653 Y62.193 F300
G1 X37.873 Y62.576 F300
G1 X36.698 Y62.576 F300
M3 S80
G0 X26.565 Y65.31
M3 S55
G1 X26.565 Y57.12 F300
M3 S80
G0 X32.034 Y65.31
M3 S55
G1 X32.034 Y57.12 F300
M3 S80
G0 X26.565 Y61.401
M3 S55
G1 X32.034 Y61.401 F300
M3 S80
G0 X48.006 Y80.776
M3 S55
G1 X48.006 Y75.307 F300
M3 S80
G0 X48.006 Y73.365
M3 S55
G1 X47.622 Y72.975 F300
G1 X48.006 Y72.585 F300
G1 X48.389 Y72.975 F300
G1 X48.006 Y73.365 F300
M3 S80
G0 X44.109 Y80.776
M3 S55
G1 X44.109 Y75.307 F300
M3 S80
G0 X44.109 Y73.365
M3 S55
G1 X43.725 Y72.975 F300
G1 X44.109 Y72.585 F300
G1 X44.492 Y72.975 F300
G1 X44.109 Y73.365 F300
M3 S80
G0 X34.755 Y80.776
M3 S55
G1 X35.139 Y80.38 F300
G1 X35.535 Y80.776 F300
G1 X35.139 Y81.159 F300
G1 X34.755 Y80.776 F300
M3 S80
G0 X35.139 Y78.041
M3 S55
G1 X35.139 Y72.585 F300
M3 S80
G0 X26.565 Y80.776
M3 S55
G1 X26.565 Y72.585 F300
M3 S80
G0 X32.034 Y80.776
M3 S55
G1 X32.034 Y72.585 F300
M3 S80
G0 X26.565 Y76.866
M3 S55
G1 X32.034 Y76.866 F300
M3 S80
